{
  "type": "FeatureCollection",
  "features": [
    {
      "type": "Feature",
      "properties": {
        "norad_id": 40730,
        "name": "GPS BIIF-10 (PRN 08)",
        "group": "gps-ops",
        "lat": 8.317254225069345,
        "lon": 88.706739364721,
        "alt_km": 20414.984172323933,
        "timestamp": "2025-12-12T11:38:31.670833+00:00",
        "meta_object_name": "GPS BIIF-10 (PRN 08)",
        "meta_object_id": "2015-033A",
        "meta_epoch": "2025-12-11T18:04:53.114592",
        "meta_mean_motion": 2.00565636,
        "meta_eccentricity": 0.01108926,
        "meta_inclination": 54.1315,
        "meta_ra_of_asc_node": 274.8134,
        "meta_arg_of_pericenter": 26.7842,
        "meta_mean_anomaly": 333.7997,
        "meta_ephemeris_type": 0,
        "meta_classification_type": "U",
        "meta_norad_cat_id": 40730,
        "meta_element_set_no": 999,
        "meta_rev_at_epoch": 7623,
        "meta_bstar": 0,
        "meta_mean_motion_dot": -7.1e-07,
        "meta_mean_motion_ddot": 0,
        "tle_line1": "1 40730U 15033A   25345.75339253 -.00000071  00000+0  00000+0 0  9999",
        "tle_line2": "2 40730  54.1315 274.8134 0110892  26.7842 333.7997  2.00565636 76236"
      },
      "geometry": {
        "type": "Point",
        "coordinates": [
          88.706739364721,
          8.317254225069345
        ]
      }
    },
    {
      "type": "Feature",
      "properties": {
        "norad_id": 41019,
        "name": "GPS BIIF-11 (PRN 10)",
        "group": "gps-ops",
        "lat": 44.40294405956221,
        "lon": 178.23656908476312,
        "alt_km": 20257.993604156218,
        "timestamp": "2025-12-12T11:38:31.670844+00:00",
        "meta_object_name": "GPS BIIF-11 (PRN 10)",
        "meta_object_id": "2015-062A",
        "meta_epoch": "2025-12-11T07:32:26.435904",
        "meta_mean_motion": 2.00567124,
        "meta_eccentricity": 0.01107874,
        "meta_inclination": 56.8311,
        "meta_ra_of_asc_node": 38.0574,
        "meta_arg_of_pericenter": 229.9047,
        "meta_mean_anomaly": 129.1688,
        "meta_ephemeris_type": 0,
        "meta_classification_type": "U",
        "meta_norad_cat_id": 41019,
        "meta_element_set_no": 999,
        "meta_rev_at_epoch": 7406,
        "meta_bstar": 0,
        "meta_mean_motion_dot": -9.3e-07,
        "meta_mean_motion_ddot": 0,
        "tle_line1": "1 41019U 15062A   25345.31419486 -.00000093  00000+0  00000+0 0  9995",
        "tle_line2": "2 41019  56.8311  38.0574 0110787 229.9047 129.1688  2.00567124 74064"
      },
      "geometry": {
        "type": "Point",
        "coordinates": [
          178.23656908476312,
          44.40294405956221
        ]
      }
    },
    {
      "type": "Feature",
      "properties": {
        "norad_id": 41328,
        "name": "GPS BIIF-12 (PRN 32)",
        "group": "gps-ops",
        "lat": 48.21597989604024,
        "lon": 147.35080963381878,
        "alt_km": 20421.023110065635,
        "timestamp": "2025-12-12T11:38:31.670855+00:00",
        "meta_object_name": "GPS BIIF-12 (PRN 32)",
        "meta_object_id": "2016-007A",
        "meta_epoch": "2025-12-10T21:33:15.579936",
        "meta_mean_motion": 2.00560768,
        "meta_eccentricity": 0.0092092,
        "meta_inclination": 55.4051,
        "meta_ra_of_asc_node": 96.9301,
        "meta_arg_of_pericenter": 243.5329,
        "meta_mean_anomaly": 115.5097,
        "meta_ephemeris_type": 0,
        "meta_classification_type": "U",
        "meta_norad_cat_id": 41328,
        "meta_element_set_no": 999,
        "meta_rev_at_epoch": 7206,
        "meta_bstar": 0,
        "meta_mean_motion_dot": 1e-08,
        "meta_mean_motion_ddot": 0,
        "tle_line1": "1 41328U 16007A   25344.89809699  .00000001  00000+0  00000+0 0  9997",
        "tle_line2": "2 41328  55.4051  96.9301 0092092 243.5329 115.5097  2.00560768 72065"
      },
      "geometry": {
        "type": "Point",
        "coordinates": [
          147.35080963381878,
          48.21597989604024
        ]
      }
    },
    {
      "type": "Feature",
      "properties": {
        "norad_id": 43873,
        "name": "GPS BIII-1  (PRN 04)",
        "group": "gps-ops",
        "lat": -32.07732544453855,
        "lon": 74.11213899321706,
        "alt_km": 20243.872460657025,
        "timestamp": "2025-12-12T11:38:31.670866+00:00",
        "meta_object_name": "GPS BIII-1  (PRN 04)",
        "meta_object_id": "2018-109A",
        "meta_epoch": "2025-12-11T18:46:12.593280",
        "meta_mean_motion": 2.00553575,
        "meta_eccentricity": 0.00372966,
        "meta_inclination": 55.5668,
        "meta_ra_of_asc_node": 99.5845,
        "meta_arg_of_pericenter": 194.9269,
        "meta_mean_anomaly": 337.0503,
        "meta_ephemeris_type": 0,
        "meta_classification_type": "U",
        "meta_norad_cat_id": 43873,
        "meta_element_set_no": 999,
        "meta_rev_at_epoch": 5131,
        "meta_bstar": 0,
        "meta_mean_motion_dot": 2e-08,
        "meta_mean_motion_ddot": 0,
        "tle_line1": "1 43873U 18109A   25345.78209020  .00000002  00000+0  00000+0 0  9991",
        "tle_line2": "2 43873  55.5668  99.5845 0037296 194.9269 337.0503  2.00553575 51312"
      },
      "geometry": {
        "type": "Point",
        "coordinates": [
          74.11213899321706,
          -32.07732544453855
        ]
      }
    },
    {
      "type": "Feature",
      "properties": {
        "norad_id": 44506,
        "name": "GPS BIII-2  (PRN 18)",
        "group": "gps-ops",
        "lat": -29.627524156092935,
        "lon": -178.62254372170884,
        "alt_km": 20040.187190428307,
        "timestamp": "2025-12-12T11:38:31.670878+00:00",
        "meta_object_name": "GPS BIII-2  (PRN 18)",
        "meta_object_id": "2019-056A",
        "meta_epoch": "2025-12-11T10:12:28.532736",
        "meta_mean_motion": 2.00566237,
        "meta_eccentricity": 0.00577517,
        "meta_inclination": 55.7218,
        "meta_ra_of_asc_node": 338.6041,
        "meta_arg_of_pericenter": 198.4885,
        "meta_mean_anomaly": 332.8185,
        "meta_ephemeris_type": 0,
        "meta_classification_type": "U",
        "meta_norad_cat_id": 44506,
        "meta_element_set_no": 999,
        "meta_rev_at_epoch": 4630,
        "meta_bstar": 0,
        "meta_mean_motion_dot": -8.7e-07,
        "meta_mean_motion_ddot": 0,
        "tle_line1": "1 44506U 19056A   25345.42533024 -.00000087  00000+0  00000+0 0  9996",
        "tle_line2": "2 44506  55.7218 338.6041 0057751 198.4885 332.8185  2.00566237 46306"
      },
      "geometry": {
        "type": "Point",
        "coordinates": [
          -178.62254372170884,
          -29.627524156092935
        ]
      }
    },
    {
      "type": "Feature",
      "properties": {
        "norad_id": 45854,
        "name": "GPS BIII-3  (PRN 23)",
        "group": "gps-ops",
        "lat": 16.48414410676154,
        "lon": -155.06280049421704,
        "alt_km": 20063.215158141207,
        "timestamp": "2025-12-12T11:38:31.670889+00:00",
        "meta_object_name": "GPS BIII-3  (PRN 23)",
        "meta_object_id": "2020-041A",
        "meta_epoch": "2025-12-11T05:23:02.925024",
        "meta_mean_motion": 2.00561914,
        "meta_eccentricity": 0.006046,
        "meta_inclination": 56.5461,
        "meta_ra_of_asc_node": 36.2442,
        "meta_arg_of_pericenter": 203.3747,
        "meta_mean_anomaly": 126.9066,
        "meta_ephemeris_type": 0,
        "meta_classification_type": "U",
        "meta_norad_cat_id": 45854,
        "meta_element_set_no": 999,
        "meta_rev_at_epoch": 4026,
        "meta_bstar": 0,
        "meta_mean_motion_dot": -9.4e-07,
        "meta_mean_motion_ddot": 0,
        "tle_line1": "1 45854U 20041A   25345.22433941 -.00000094  00000+0  00000+0 0  9992",
        "tle_line2": "2 45854  56.5461  36.2442 0060460 203.3747 126.9066  2.00561914 40268"
      },
      "geometry": {
        "type": "Point",
        "coordinates": [
          -155.06280049421704,
          16.48414410676154
        ]
      }
    },
    {
      "type": "Feature",
      "properties": {
        "norad_id": 46826,
        "name": "GPS BIII-4  (PRN 14)",
        "group": "gps-ops",
        "lat": 37.758034046428534,
        "lon": 4.138131342741857,
        "alt_km": 20124.953582520397,
        "timestamp": "2025-12-12T11:38:31.670901+00:00",
        "meta_object_name": "GPS BIII-4  (PRN 14)",
        "meta_object_id": "2020-078A",
        "meta_epoch": "2025-12-11T12:08:25.039104",
        "meta_mean_motion": 2.0056681,
        "meta_eccentricity": 0.00646308,
        "meta_inclination": 54.0154,
        "meta_ra_of_asc_node": 218.391,
        "meta_arg_of_pericenter": 203.3565,
        "meta_mean_anomaly": 301.1266,
        "meta_ephemeris_type": 0,
        "meta_classification_type": "U",
        "meta_norad_cat_id": 46826,
        "meta_element_set_no": 999,
        "meta_rev_at_epoch": 3774,
        "meta_bstar": 0,
        "meta_mean_motion_dot": 1e-07,
        "meta_mean_motion_ddot": 0,
        "tle_line1": "1 46826U 20078A   25345.50584536  .00000010  00000+0  00000+0 0  9997",
        "tle_line2": "2 46826  54.0154 218.3910 0064630 203.3565 301.1266  2.00566810 37742"
      },
      "geometry": {
        "type": "Point",
        "coordinates": [
          4.138131342741857,
          37.758034046428534
        ]
      }
    }
  ]
}